{
  "type": "FeatureCollection",
  "features": [
    {
      "type": "Feature",
      "properties": {
        "norad_id": 66663,
        "name": "KSLV-II R/B",
        "group": "last-30-days",
        "lat": 82.1720775929114,
        "lon": 170.1942566430313,
        "alt_km": 580.8280432362817,
        "timestamp": "2025-12-07T03:52:31.205369+00:00",
        "meta_object_name": "KSLV-II R/B",
        "meta_object_id": "2025-274P",
        "meta_epoch": "2025-12-05T12:58:33.614976",
        "meta_mean_motion": 14.97210966,
        "meta_eccentricity": 0.00473649,
        "meta_inclination": 97.7405,
        "meta_ra_of_asc_node": 266.9508,
        "meta_arg_of_pericenter": 343.4564,
        "meta_mean_anomaly": 16.5109,
        "meta_ephemeris_type": 0,
        "meta_classification_type": "U",
        "meta_norad_cat_id": 66663,
        "meta_element_set_no": 999,
        "meta_rev_at_epoch": 133,
        "meta_bstar": 0.0001343158,
        "meta_mean_motion_dot": 1.527e-05,
        "meta_mean_motion_ddot": 0,
        "tle_line1": "1 66663U 25274P   25339.54066684  .00001527  00000+0  13432-3 0  9998",
        "tle_line2": "2 66663  97.7405 266.9508 0047364 343.4564  16.5109 14.97210966  1334"
      },
      "geometry": {
        "type": "Point",
        "coordinates": [
          170.1942566430313,
          82.1720775929114
        ]
      }
    },
    {
      "type": "Feature",
      "properties": {
        "norad_id": 66664,
        "name": "SOYUZ-MS 28",
        "group": "last-30-days",
        "lat": -24.91083720610038,
        "lon": 11.686319725649259,
        "alt_km": 419.42933536887085,
        "timestamp": "2025-12-07T03:52:31.205380+00:00",
        "meta_object_name": "SOYUZ-MS 28",
        "meta_object_id": "2025-275A",
        "meta_epoch": "2025-12-06T13:01:49.374912",
        "meta_mean_motion": 15.4936639,
        "meta_eccentricity": 0.00035502,
        "meta_inclination": 51.6299,
        "meta_ra_of_asc_node": 173.16,
        "meta_arg_of_pericenter": 211.9909,
        "meta_mean_anomaly": 148.0864,
        "meta_ephemeris_type": 0,
        "meta_classification_type": "U",
        "meta_norad_cat_id": 66664,
        "meta_element_set_no": 999,
        "meta_rev_at_epoch": 128,
        "meta_bstar": 0.00027332684,
        "meta_mean_motion_dot": 0.00014832,
        "meta_mean_motion_ddot": 0,
        "tle_line1": "1 66664U 25275A   25340.54293258  .00014832  00000+0  27333-3 0  9999",
        "tle_line2": "2 66664  51.6299 173.1600 0003550 211.9909 148.0864 15.49366390  1282"
      },
      "geometry": {
        "type": "Point",
        "coordinates": [
          11.686319725649259,
          -24.91083720610038
        ]
      }
    },
    {
      "type": "Feature",
      "properties": {
        "norad_id": 66820,
        "name": "KOMPSAT-7",
        "group": "last-30-days",
        "lat": 29.66610619499786,
        "lon": 111.52578912431116,
        "alt_km": 570.7411076444068,
        "timestamp": "2025-12-07T03:52:31.205391+00:00",
        "meta_object_name": "KOMPSAT-7",
        "meta_object_id": "2025-279A",
        "meta_epoch": "2025-12-06T14:23:07.341792",
        "meta_mean_motion": 14.98352979,
        "meta_eccentricity": 0.00094976,
        "meta_inclination": 97.6392,
        "meta_ra_of_asc_node": 286.5909,
        "meta_arg_of_pericenter": 243.579,
        "meta_mean_anomaly": 116.4458,
        "meta_ephemeris_type": 0,
        "meta_classification_type": "U",
        "meta_norad_cat_id": 66820,
        "meta_element_set_no": 999,
        "meta_rev_at_epoch": 73,
        "meta_bstar": 0.00038731982,
        "meta_mean_motion_dot": 4.562e-05,
        "meta_mean_motion_ddot": 0,
        "tle_line1": "1 66820U 25279A   25340.59939053  .00004562  00000+0  38732-3 0  9996",
        "tle_line2": "2 66820  97.6392 286.5909 0009497 243.5790 116.4458 14.98352979   734"
      },
      "geometry": {
        "type": "Point",
        "coordinates": [
          111.52578912431116,
          29.66610619499786
        ]
      }
    },
    {
      "type": "Feature",
      "properties": {
        "norad_id": 66877,
        "name": "ZQ-3 R/B",
        "group": "last-30-days",
        "lat": -31.36681598603458,
        "lon": 55.42384250449915,
        "alt_km": 917.3385221254721,
        "timestamp": "2025-12-07T03:52:31.205404+00:00",
        "meta_object_name": "ZQ-3 R/B",
        "meta_object_id": "2025-282A",
        "meta_epoch": "2025-12-06T14:47:06.585216",
        "meta_mean_motion": 14.43941869,
        "meta_eccentricity": 0.08438951,
        "meta_inclination": 56.9542,
        "meta_ra_of_asc_node": 80.8481,
        "meta_arg_of_pericenter": 209.4795,
        "meta_mean_anomaly": 145.6015,
        "meta_ephemeris_type": 0,
        "meta_classification_type": "U",
        "meta_norad_cat_id": 66877,
        "meta_element_set_no": 999,
        "meta_rev_at_epoch": 50,
        "meta_bstar": 0.00027080381,
        "meta_mean_motion_dot": 0.01241586,
        "meta_mean_motion_ddot": 7.23249e-06,
        "tle_line1": "1 66877U 25282A   25340.61604844  .01241586  72325-5  27080-3 0  9991",
        "tle_line2": "2 66877  56.9542  80.8481 0843895 209.4795 145.6015 14.43941869   505"
      },
      "geometry": {
        "type": "Point",
        "coordinates": [
          55.42384250449915,
          -31.36681598603458
        ]
      }
    },
    {
      "type": "Feature",
      "properties": {
        "norad_id": 66906,
        "name": "1998-067XS",
        "group": "last-30-days",
        "lat": -33.07788377766229,
        "lon": 21.141855604077012,
        "alt_km": 418.1017393516868,
        "timestamp": "2025-12-07T03:52:31.205417+00:00",
        "meta_object_name": "1998-067XS",
        "meta_object_id": "1998-067XS",
        "meta_epoch": "2025-12-06T14:32:06.723168",
        "meta_mean_motion": 15.50122906,
        "meta_eccentricity": 0.0004191,
        "meta_inclination": 51.6297,
        "meta_ra_of_asc_node": 172.8292,
        "meta_arg_of_pericenter": 176.5725,
        "meta_mean_anomaly": 183.5293,
        "meta_ephemeris_type": 0,
        "meta_classification_type": "U",
        "meta_norad_cat_id": 66906,
        "meta_element_set_no": 999,
        "meta_rev_at_epoch": 66,
        "meta_bstar": 0.00066148009,
        "meta_mean_motion_dot": 0.00037648,
        "meta_mean_motion_ddot": 0,
        "tle_line1": "1 66906U 98067XS  25340.60563337  .00037648  00000+0  66148-3 0  9999",
        "tle_line2": "2 66906  51.6297 172.8292 0004191 176.5725 183.5293 15.50122906   662"
      },
      "geometry": {
        "type": "Point",
        "coordinates": [
          21.141855604077012,
          -33.07788377766229
        ]
      }
    },
    {
      "type": "Feature",
      "properties": {
        "norad_id": 66907,
        "name": "1998-067XT",
        "group": "last-30-days",
        "lat": -35.04921352827125,
        "lon": 23.833457455922268,
        "alt_km": 416.0881558469209,
        "timestamp": "2025-12-07T03:52:31.205428+00:00",
        "meta_object_name": "1998-067XT",
        "meta_object_id": "1998-067XT",
        "meta_epoch": "2025-12-06T14:31:31.325088",
        "meta_mean_motion": 15.5045482,
        "meta_eccentricity": 0.00051917,
        "meta_inclination": 51.6295,
        "meta_ra_of_asc_node": 172.8271,
        "meta_arg_of_pericenter": 193.5378,
        "meta_mean_anomaly": 166.5473,
        "meta_ephemeris_type": 0,
        "meta_classification_type": "U",
        "meta_norad_cat_id": 66907,
        "meta_element_set_no": 999,
        "meta_rev_at_epoch": 66,
        "meta_bstar": 0.0014185455,
        "meta_mean_motion_dot": 0.00082713,
        "meta_mean_motion_ddot": 0,
        "tle_line1": "1 66907U 98067XT  25340.60522367  .00082713  00000+0  14185-2 0  9994",
        "tle_line2": "2 66907  51.6295 172.8271 0005191 193.5378 166.5473 15.50454820   666"
      },
      "geometry": {
        "type": "Point",
        "coordinates": [
          23.833457455922268,
          -35.04921352827125
        ]
      }
    },
    {
      "type": "Feature",
      "properties": {
        "norad_id": 66908,
        "name": "1998-067XU",
        "group": "last-30-days",
        "lat": -35.58362930197025,
        "lon": 24.599743097475724,
        "alt_km": 415.84836539948446,
        "timestamp": "2025-12-07T03:52:31.205440+00:00",
        "meta_object_name": "1998-067XU",
        "meta_object_id": "1998-067XU",
        "meta_epoch": "2025-12-06T09:52:54.497568",
        "meta_mean_motion": 15.50486403,
        "meta_eccentricity": 0.0005415,
        "meta_inclination": 51.6293,
        "meta_ra_of_asc_node": 173.7848,
        "meta_arg_of_pericenter": 192.211,
        "meta_mean_anomaly": 167.8749,
        "meta_ephemeris_type": 0,
        "meta_classification_type": "U",
        "meta_norad_cat_id": 66908,
        "meta_element_set_no": 999,
        "meta_rev_at_epoch": 63,
        "meta_bstar": 0.0014263123,
        "meta_mean_motion_dot": 0.00083271,
        "meta_mean_motion_ddot": 0,
        "tle_line1": "1 66908U 98067XU  25340.41174187  .00083271  00000+0  14263-2 0  9994",
        "tle_line2": "2 66908  51.6293 173.7848 0005415 192.2110 167.8749 15.50486403   633"
      },
      "geometry": {
        "type": "Point",
        "coordinates": [
          24.599743097475724,
          -35.58362930197025
        ]
      }
    }
  ]
}